[
    {
        "Altitude(m)": 607910.9999310218,
        "Argument of Periapsis(deg)": 0.0,
        "Eccentricity": 0.0,
        "Inclination(deg)": 60.0,
        "Latitude(deg)": -14.292892881081366,
        "Longitude(deg)": 28.442676887608055,
        "Mean Anomaly(deg)": -163.63639999999998,
        "RAAN(deg)": 300.0,
        "Satellite Name": "Test1 1332",
        "Satellite Number": 1332,
        "Semi-Major Axis(m)": 6980739.136638005,
        "Time(s)": 0
    },
    {
        "Altitude(m)": 608060.2331076965,
        "Argument of Periapsis(deg)": 0.00010418945913296404,
        "Eccentricity": 0.0,
        "Inclination(deg)": 60.0,
        "Latitude(deg)": -14.82655369915821,
        "Longitude(deg)": 28.731287405738026,
        "Mean Anomaly(deg)": -163.01629385453822,
        "RAAN(deg)": 299.99957995086027,
        "Satellite Name": "Test1 1332",
        "Satellite Number": 1332,
        "Semi-Major Axis(m)": 6980739.136638005,
        "Time(s)": 10
    }
]